NORAD_CAT_ID,OBJECT_NAME,OBJECT_TYPE,EPOCH,MEAN_MOTION,ECCENTRICITY,INCLINATION,RA_OF_ASC_NODE,ARG_OF_PERICENTER,MEAN_ANOMALY,BSTAR,MEAN_MOTION_DOT,MEAN_MOTION_DDOT,TLE_LINE0,TLE_LINE1,TLE_LINE2,SEMIMAJOR_AXIS,PERIOD,APOGEE,PERIGEE,DECAYED
51994.0,STARLINK-3647,PAYLOAD,2024-06-09 20:08:41,15.08826534,9.94e-05,53.2154,2.542,92.8984,267.2122,0.00025499,3.771e-05,0.0,0 STARLINK-3647,1 51994U 22025AQ  24161.83936800  .00003771  00000-0  25499-3 0  9990,2 51994  53.2154   2.5420 0000994  92.8984 267.2122 15.08826534126154,6917.922,95.438,540.474,539.099,0.0
51994.0,STARLINK-3647,PAYLOAD,2024-06-09 21:44:03,15.08845225,0.0001371,53.2183,2.2447,92.0636,268.0513,-0.0002069,-3.58e-05,0.0,0 STARLINK-3647,1 51994U 22025AQ  24161.90559737 -.00003580  00000-0 -20690-3 0  9996,2 51994  53.2183   2.2447 0001371  92.0636 268.0513 15.08845225124630,6917.864,95.437,540.678,538.781,0.0
51994.0,STARLINK-3647,PAYLOAD,2024-06-09 23:19:27,15.08837639,0.0001327,53.218,1.9477,94.2332,265.8812,2.1546e-05,5.5e-07,0.0,0 STARLINK-3647,1 51994U 22025AQ  24161.97184257  .00000055  00000-0  21546-4 0  9998,2 51994  53.2180   1.9477 0001327  94.2332 265.8812 15.08837639126172,6917.888,95.438,540.671,538.835,0.0
51994.0,STARLINK-3647,PAYLOAD,2024-06-10 18:24:04,15.08839451,0.000144,53.2206,358.3785,96.5378,263.5778,7.3219e-05,8.78e-06,0.0,0 STARLINK-3647,1 51994U 22025AQ  24162.76672189  .00000878  00000-0  73219-4 0  9999,2 51994  53.2206 358.3785 0001440  96.5378 263.5778 15.08839451124766,6917.882,95.438,540.743,538.751,0.0
51994.0,STARLINK-3647,PAYLOAD,2024-06-11 05:31:46,15.0883827,0.0001471,53.2189,356.2965,96.9397,263.1763,0.00013982,1.938e-05,0.0,0 STARLINK-3647,1 51994U 22025AQ  24163.23040059  .00001938  00000-0  13982-3 0  9995,2 51994  53.2189 356.2965 0001471  96.9397 263.1763 15.08838270126368,6917.886,95.438,540.768,538.733,0.0
51994.0,STARLINK-3647,PAYLOAD,2024-06-11 13:28:42,15.08835808,0.0001495,53.2173,354.811,99.37,260.7461,0.00011864,1.6e-05,0.0,0 STARLINK-3647,1 51994U 22025AQ  24163.56160355  .00001600  00000-0  11864-3 0  9996,2 51994  53.2173 354.8110 0001495  99.3700 260.7461 15.08835808124885,6917.893,95.438,540.792,538.724,0.0
51994.0,STARLINK-3647,PAYLOAD,2024-06-12 05:22:33,15.088424,0.0001275,53.2174,351.8378,92.7882,267.3256,0.00014905,2.085e-05,0.0,0 STARLINK-3647,1 51994U 22025AQ  24164.22399906  .00002085  00000-0  14905-3 0  9993,2 51994  53.2174 351.8378 0001275  92.7882 267.3256 15.08842400124985,6917.873,95.437,540.62,538.856,0.0
51994.0,STARLINK-3647,PAYLOAD,2024-06-12 11:44:07,15.08829617,0.0001872,53.2173,350.6476,87.0348,273.0858,9.5212e-06,-1.37e-06,0.0,0 STARLINK-3647,1 51994U 22025AQ  24164.48897349 -.00000137  00000-0  95212-5 0  9994,2 51994  53.2173 350.6476 0001872  87.0348 273.0858 15.08829617126559,6917.912,95.438,541.072,538.482,0.0
51994.0,STARLINK-3647,PAYLOAD,2024-06-12 19:41:02,15.08832911,0.0001598,53.2173,349.1616,84.9699,275.1475,-3.5939e-05,-8.6e-06,0.0,0 STARLINK-3647,1 51994U 22025AQ  24164.82017262 -.00000860  00000-0 -35939-4 0  9993,2 51994  53.2173 349.1616 0001598  84.9699 275.1475 15.08832911125073,6917.902,95.438,540.873,538.662,0.0
51994.0,STARLINK-3647,PAYLOAD,2024-06-13 19:31:48,15.08850428,0.0001316,53.2183,344.7025,92.5434,267.5709,9.6151e-05,1.243e-05,0.0,0 STARLINK-3647,1 51994U 22025AQ  24165.81375810  .00001243  00000-0  96151-4 0  9996,2 51994  53.2183 344.7025 0001316  92.5434 267.5709 15.08850428125224,6917.849,95.437,540.624,538.803,0.0
51994.0,STARLINK-3647,PAYLOAD,2024-06-14 11:25:41,15.08832102,0.0001503,53.2176,341.73,82.0547,278.0616,0.00017918,2.564e-05,0.0,0 STARLINK-3647,1 51994U 22025AQ  24166.47616985  .00002564  00000-0  17918-3 0  9990,2 51994  53.2176 341.7300 0001503  82.0547 278.0616 15.08832102125320,6917.905,95.438,540.809,538.73,0.0
51994.0,STARLINK-3647,PAYLOAD,2024-06-14 19:22:36,15.08834609,0.0001267,53.2174,340.2424,64.5947,295.5176,0.00011471,1.538e-05,0.0,0 STARLINK-3647,1 51994U 22025AQ  24166.80737087  .00001538  00000-0  11471-3 0  9992,2 51994  53.2174 340.2424 0001267  64.5947 295.5176 15.08834609125379,6917.897,95.438,540.638,538.885,0.0
51994.0,STARLINK-3647,PAYLOAD,2024-06-15 04:54:55,15.08842432,0.0001293,53.2178,338.4587,81.1603,278.9536,0.0001288,1.763e-05,0.0,0 STARLINK-3647,1 51994U 22025AQ  24167.20480658  .00001763  00000-0  12880-3 0  9991,2 51994  53.2178 338.4587 0001293  81.1603 278.9536 15.08842432125430,6917.873,95.437,540.632,538.843,0.0
51994.0,STARLINK-3647,PAYLOAD,2024-06-15 17:38:00,15.08843042,0.00014,53.218,336.0795,62.6829,297.4306,0.00021941,3.206e-05,0.0,0 STARLINK-3647,1 51994U 22025AQ  24167.73472410  .00003206  00000-0  21941-3 0  9998,2 51994  53.2180 336.0795 0001400  62.6829 297.4306 15.08843042125510,6917.871,95.437,540.705,538.768,0.0
51994.0,STARLINK-3647,PAYLOAD,2024-06-16 14:18:01,15.08840261,0.0001503,53.2189,332.2127,81.5625,278.5537,0.00017731,2.535e-05,0.0,0 STARLINK-3647,1 51994U 22025AQ  24168.59584659  .00002535  00000-0  17731-3 0  9998,2 51994  53.2189 332.2127 0001503  81.5625 278.5537 15.08840261125644,6917.88,95.438,540.784,538.705,0.0
51994.0,STARLINK-3647,PAYLOAD,2024-06-16 17:28:47,15.08837312,0.0001157,53.219,331.6162,93.067,267.0455,0.00019895,2.88e-05,0.0,0 STARLINK-3647,1 51994U 22025AQ  24168.72832503  .00002880  00000-0  19895-3 0  9993,2 51994  53.2190 331.6162 0001157  93.0670 267.0455 15.08837312125668,6917.889,95.438,540.554,538.953,0.0
51994.0,STARLINK-3647,PAYLOAD,2024-06-17 10:58:02,15.08836729,0.0001366,53.2192,328.3457,96.8923,263.2225,0.0001017,1.331e-05,0.0,0 STARLINK-3647,1 51994U 22025AQ  24169.45696794  .00001331  00000-0  10170-3 0  9991,2 51994  53.2192 328.3457 0001366  96.8923 263.2225 15.08836729125770,6917.89,95.438,540.7,538.81,0.0
51994.0,STARLINK-3647,PAYLOAD,2024-06-18 13:59:35,15.08840102,0.0001372,53.2185,323.2907,97.3428,262.772,6.3253e-05,7.19e-06,0.0,0 STARLINK-3647,1 51994U 22025AQ  24170.58304479  .00000719  00000-0  63253-4 0  9993,2 51994  53.2185 323.2907 0001372  97.3428 262.7720 15.08840102125942,6917.88,95.438,540.694,538.796,0.0
51994.0,STARLINK-3647,PAYLOAD,2024-06-18 17:10:21,15.08843568,0.0001197,53.2186,322.6968,89.501,270.6119,0.00010594,1.399e-05,0.0,0 STARLINK-3647,1 51994U 22025AQ  24170.71552176  .00001399  00000-0  10594-3 0  9991,2 51994  53.2186 322.6968 0001197  89.5010 270.6119 15.08843568127499,6917.869,95.437,540.563,538.906,0.0
51994.0,STARLINK-3647,PAYLOAD,2024-06-19 10:39:36,15.088314,0.0001585,53.2186,319.4277,89.9158,270.2016,5.565e-05,5.98e-06,0.0,0 STARLINK-3647,1 51994U 22025AQ  24171.44417351  .00000598  00000-0  55650-4 0  9990,2 51994  53.2186 319.4277 0001585  89.9158 270.2016 15.08831400127601,6917.907,95.438,540.868,538.675,0.0
51994.0,STARLINK-3647,PAYLOAD,2024-06-19 13:50:22,15.08831606,0.0001662,53.2209,318.8384,106.4523,253.6652,3.4078e-05,2.54e-06,0.0,0 STARLINK-3647,1 51994U 22025AQ  24171.57665438  .00000254  00000-0  34078-4 0  9995,2 51994  53.2209 318.8384 0001662 106.4523 253.6652 15.08831606126097,6917.906,95.438,540.921,538.621,0.0
51994.0,STARLINK-3647,PAYLOAD,2024-06-19 20:11:55,15.08835128,0.0001359,53.2194,317.6435,95.1466,264.9681,7.6359e-05,9.27e-06,0.0,0 STARLINK-3647,1 51994U 22025AQ  24171.84161173  .00000927  00000-0  76359-4 0  9997,2 51994  53.2194 317.6435 0001359  95.1466 264.9681 15.08835128126132,6917.895,95.438,540.7,538.82,0.0
51994.0,STARLINK-3647,PAYLOAD,2024-06-20 13:41:09,15.08841228,0.0001022,53.2167,314.3685,75.4104,284.7001,5.2573e-05,5.49e-06,0.0,0 STARLINK-3647,1 51994U 22025AQ  24172.57025041  .00000549  00000-0  52573-4 0  9993,2 51994  53.2167 314.3685 0001022  75.4104 284.7001 15.08841228126246,6917.877,95.437,540.449,539.035,0.0
51994.0,STARLINK-3647,PAYLOAD,2024-06-20 20:02:41,15.08856459,0.0001321,53.2194,313.1822,81.1753,278.9388,0.00015406,2.166e-05,0.0,0 STARLINK-3647,1 51994U 22025AQ  24172.83519736  .00002166  00000-0  15406-3 0  9991,2 51994  53.2194 313.1822 0001321  81.1753 278.9388 15.08856459127811,6917.83,95.437,540.609,538.781,0.0
51994.0,STARLINK-3647,PAYLOAD,2024-06-21 13:31:57,15.08826292,0.000132,53.2177,309.9129,71.0032,289.1104,8.1843e-05,1.014e-05,0.0,0 STARLINK-3647,1 51994U 22025AQ  24173.56386280  .00001014  00000-0  81843-4 0  9998,2 51994  53.2177 309.9129 0001320  71.0032 289.1104 15.08826292127926,6917.922,95.438,540.7,538.874,0.0
51994.0,STARLINK-3647,PAYLOAD,2024-06-21 16:42:43,15.08833262,0.0001327,53.2177,309.3173,77.2231,282.891,6.7309e-05,7.83e-06,0.0,0 STARLINK-3647,1 51994U 22025AQ  24173.69633971  .00000783  00000-0  67309-4 0  9997,2 51994  53.2177 309.3173 0001327  77.2231 282.8910 15.08833262126418,6917.901,95.438,540.684,538.848,0.0
51994.0,STARLINK-3647,PAYLOAD,2024-06-22 13:22:44,15.08844198,0.0001574,53.2187,305.4524,75.6085,284.5082,5.8779e-05,6.48e-06,0.0,0 STARLINK-3647,1 51994U 22025AQ  24174.55745540  .00000648  00000-0  58779-4 0  9990,2 51994  53.2187 305.4524 0001574  75.6085 284.5082 15.08844198128072,6917.868,95.437,540.821,538.644,0.0
51994.0,STARLINK-3647,PAYLOAD,2024-06-22 16:33:30,15.08851054,0.0001388,53.2186,304.8553,81.5045,278.6105,2.9175e-05,1.77e-06,0.0,0 STARLINK-3647,1 51994U 22025AQ  24174.68993100  .00000177  00000-0  29175-4 0  9996,2 51994  53.2186 304.8553 0001388  81.5045 278.6105 15.08851054126562,6917.847,95.437,540.672,538.751,0.0
51994.0,STARLINK-3647,PAYLOAD,2024-06-23 13:13:31,15.08841501,0.0001676,53.2192,300.9904,72.9136,287.2039,0.00012461,1.696e-05,0.0,0 STARLINK-3647,1 51994U 22025AQ  24175.55105614  .00001696  00000-0  12461-3 0  9994,2 51994  53.2192 300.9904 0001676  72.9136 287.2039 15.08841501126693,6917.876,95.437,540.9,538.581,0.0
51994.0,STARLINK-3647,PAYLOAD,2024-06-23 17:59:40,15.08847273,0.0001636,53.2188,300.0971,77.1345,282.983,0.00015902,2.244e-05,0.0,0 STARLINK-3647,1 51994U 22025AQ  24175.74977117  .00002244  00000-0  15902-3 0  9993,2 51994  53.2188 300.0971 0001636  77.1345 282.9830 15.08847273128255,6917.858,95.437,540.855,538.591,0.0
